{
  "norad_id": 59661,
  "name": "STARLINK-31880",
  "history": [
    {
      "epoch": "2026-03-28T13:53:01.878144",
      "apogee_km": 484.11850017222423,
      "perigee_km": 481.9531140343024,
      "latitude_deg": 3.417293256105658,
      "longitude_deg": -158.36457983986475,
      "semi_major_axis_km": 6861.172807103263,
      "eccentricity": 0.0001578,
      "inclination_deg": 43.0021,
      "raan_deg": 291.5229,
      "arg_perigee_deg": 276.1802,
      "mean_anomaly_deg": 83.887,
      "mean_motion_rev_day": 15.27584438
    }
  ]
}